0 N-1 R/B
1 13493U 82087B   13282.25331823 -.00000089  00000-0  31547-4 0  2601
2 13493 044.6221 182.9029 0173874 339.9316 169.8597 13.44412427527940
0 N-1 R/B
1 13493U 82087B   13287.15559359 -.00000035  00000-0  11755-3 0  2622
2 13493 044.6214 162.8929 0173589 001.4842 136.2864 13.44412560528603
0 N-1 R/B
1 13493U 82087B   13289.44273005 -.00000069  00000-0  64715-4 0  2630
2 13493 044.6211 153.5572 0173470 011.5474 045.7461 13.44413116528912
0 N-1 R/B
1 13493U 82087B   13291.45255900 -.00000078  00000-0  50764-4 0  2648
2 13493 044.6209 145.3534 0173409 020.3942 053.0717 13.44413439529180
0 N-1 R/B
1 13493U 82087B   13293.45869155 -.00000076  00000-0  54426-4 0  2651
2 13493 044.6209 137.1646 0173321 029.2339 042.5006 13.44413574529458
0 N-1 R/B
1 13493U 82087B   13295.52986747 -.00000067  00000-0  70022-4 0  2669
2 13493 044.6211 128.7101 0173253 038.3603 346.7330 13.44413501529732
